[{"OBJECT_NAME":"STARLINK-34846","OBJECT_ID":"2025-288P","EPOCH":"2026-03-17T18:15:26.306496","MEAN_MOTION":15.27626171,"ECCENTRICITY":0.00013326,"INCLINATION":43.0024,"RA_OF_ASC_NODE":337.7119,"ARG_OF_PERICENTER":266.6409,"MEAN_ANOMALY":93.429,"EPHEMERIS_TYPE":0,"CLASSIFICATION_TYPE":"U","NORAD_CAT_ID":66972,"ELEMENT_SET_NO":999,"REV_AT_EPOCH":1652,"BSTAR":0.00090849515,"MEAN_MOTION_DOT":0.00024857,"MEAN_MOTION_DDOT":0},{"OBJECT_NAME":"STARLINK-35778","OBJECT_ID":"2025-288Q","EPOCH":"2026-03-17T17:56:56.266944","MEAN_MOTION":15.27601917,"ECCENTRICITY":0.00012737,"INCLINATION":42.9966,"RA_OF_ASC_NODE":337.6105,"ARG_OF_PERICENTER":290.7079,"MEAN_ANOMALY":69.3636,"EPHEMERIS_TYPE":0,"CLASSIFICATION_TYPE":"U","NORAD_CAT_ID":66973,"ELEMENT_SET_NO":999,"REV_AT_EPOCH":1652,"BSTAR":0.00052034154,"MEAN_MOTION_DOT":0.00014094,"MEAN_MOTION_DDOT":0},{"OBJECT_NAME":"STARLINK-35780","OBJECT_ID":"2025-288R","EPOCH":"2026-03-18T00:04:18.437952","MEAN_MOTION":15.27611559,"ECCENTRICITY":0.00014442,"INCLINATION":43.0001,"RA_OF_ASC_NODE":336.0848,"ARG_OF_PERICENTER":271.686,"MEAN_ANOMALY":88.3826,"EPHEMERIS_TYPE":0,"CLASSIFICATION_TYPE":"U","NORAD_CAT_ID":66974,"ELEMENT_SET_NO":999,"REV_AT_EPOCH":1656,"BSTAR":0.00066194827,"MEAN_MOTION_DOT":0.00018015,"MEAN_MOTION_DDOT":0},{"OBJECT_NAME":"STARLINK-35777","OBJECT_ID":"2025-288S","EPOCH":"2026-03-18T00:00:49.215168","MEAN_MOTION":15.27593187,"ECCENTRICITY":0.00010044,"INCLINATION":42.9994,"RA_OF_ASC_NODE":336.9304,"ARG_OF_PERICENTER":224.96,"MEAN_ANOMALY":135.117,"EPHEMERIS_TYPE":0,"CLASSIFICATION_TYPE":"U","NORAD_CAT_ID":66975,"ELEMENT_SET_NO":999,"REV_AT_EPOCH":1655,"BSTAR":0.00067812694,"MEAN_MOTION_DOT":0.00018453,"MEAN_MOTION_DDOT":0},{"OBJECT_NAME":"STARLINK-35772","OBJECT_ID":"2025-288T","EPOCH":"2026-03-17T18:36:57.714336","MEAN_MOTION":15.28465539,"ECCENTRICITY":0.00016214,"INCLINATION":43.0025,"RA_OF_ASC_NODE":337.8692,"ARG_OF_PERICENTER":266.5913,"MEAN_ANOMALY":93.4754,"EPHEMERIS_TYPE":0,"CLASSIFICATION_TYPE":"U","NORAD_CAT_ID":66976,"ELEMENT_SET_NO":999,"REV_AT_EPOCH":1652,"BSTAR":0.0008472966,"MEAN_MOTION_DOT":0.00023769,"MEAN_MOTION_DDOT":0},{"OBJECT_NAME":"STARLINK-35770","OBJECT_ID":"2025-288U","EPOCH":"2026-03-17T23:38:37.315968","MEAN_MOTION":15.27602149,"ECCENTRICITY":0.00012115,"INCLINATION":43.0045,"RA_OF_ASC_NODE":336.8191,"ARG_OF_PERICENTER":267.0258,"MEAN_ANOMALY":93.0455,"EPHEMERIS_TYPE":0,"CLASSIFICATION_TYPE":"U","NORAD_CAT_ID":66977,"ELEMENT_SET_NO":999,"REV_AT_EPOCH":1655,"BSTAR":0.00055663568,"MEAN_MOTION_DOT":0.00015097,"MEAN_MOTION_DDOT":0},{"OBJECT_NAME":"STARLINK-35787","OBJECT_ID":"2025-288V","EPOCH":"2026-03-17T10:11:42.758016","MEAN_MOTION":15.27598249,"ECCENTRICITY":0.00012545,"INCLINATION":43.0009,"RA_OF_ASC_NODE":339.4857,"ARG_OF_PERICENTER":284.8038,"MEAN_ANOMALY":75.2675,"EPHEMERIS_TYPE":0,"CLASSIFICATION_TYPE":"U","NORAD_CAT_ID":66978,"ELEMENT_SET_NO":999,"REV_AT_EPOCH":1647,"BSTAR":0.00061970802,"MEAN_MOTION_DOT":0.00016839,"MEAN_MOTION_DDOT":0},{"OBJECT_NAME":"STARLINK-36107","OBJECT_ID":"2025-288W","EPOCH":"2026-03-17T23:58:58.442592","MEAN_MOTION":15.27609902,"ECCENTRICITY":0.00013214,"INCLINATION":43.0006,"RA_OF_ASC_NODE":336.9134,"ARG_OF_PERICENTER":273.3435,"MEAN_ANOMALY":86.7265,"EPHEMERIS_TYPE":0,"CLASSIFICATION_TYPE":"U","NORAD_CAT_ID":66979,"ELEMENT_SET_NO":999,"REV_AT_EPOCH":1655,"BSTAR":0.00066143701,"MEAN_MOTION_DOT":0.00018,"MEAN_MOTION_DDOT":0},{"OBJECT_NAME":"STARLINK-36086","OBJECT_ID":"2025-288X","EPOCH":"2026-03-17T23:44:10.315392","MEAN_MOTION":15.27606045,"ECCENTRICITY":0.00022329,"INCLINATION":43.0023,"RA_OF_ASC_NODE":336.8447,"ARG_OF_PERICENTER":257.4505,"MEAN_ANOMALY":102.6097,"EPHEMERIS_TYPE":0,"CLASSIFICATION_TYPE":"U","NORAD_CAT_ID":66980,"ELEMENT_SET_NO":999,"REV_AT_EPOCH":1655,"BSTAR":0.00056230313,"MEAN_MOTION_DOT":0.00015256,"MEAN_MOTION_DDOT":0},{"OBJECT_NAME":"STARLINK-36142","OBJECT_ID":"2025-288Y","EPOCH":"2026-03-17T21:55:12.898272","MEAN_MOTION":15.27603095,"ECCENTRICITY":0.00012089,"INCLINATION":43.0029,"RA_OF_ASC_NODE":337.138,"ARG_OF_PERICENTER":260.9038,"MEAN_ANOMALY":99.1677,"EPHEMERIS_TYPE":0,"CLASSIFICATION_TYPE":"U","NORAD_CAT_ID":66981,"ELEMENT_SET_NO":999,"REV_AT_EPOCH":1654,"BSTAR":0.00054721446,"MEAN_MOTION_DOT":0.00014837,"MEAN_MOTION_DDOT":0},{"OBJECT_NAME":"STARLINK-36113","OBJECT_ID":"2025-288Z","EPOCH":"2026-03-17T17:53:14.460000","MEAN_MOTION":15.2760452,"ECCENTRICITY":2.555e-5,"INCLINATION":42.9955,"RA_OF_ASC_NODE":337.5828,"ARG_OF_PERICENTER":187.9992,"MEAN_ANOMALY":172.0856,"EPHEMERIS_TYPE":0,"CLASSIFICATION_TYPE":"U","NORAD_CAT_ID":66982,"ELEMENT_SET_NO":999,"REV_AT_EPOCH":1652,"BSTAR":0.0011220067,"MEAN_MOTION_DOT":0.00030765,"MEAN_MOTION_DDOT":0},{"OBJECT_NAME":"STARLINK-36145","OBJECT_ID":"2025-288AA","EPOCH":"2026-03-17T20:22:54.181344","MEAN_MOTION":15.27618729,"ECCENTRICITY":0.00020256,"INCLINATION":42.9993,"RA_OF_ASC_NODE":337.5085,"ARG_OF_PERICENTER":255.2199,"MEAN_ANOMALY":104.8428,"EPHEMERIS_TYPE":0,"CLASSIFICATION_TYPE":"U","NORAD_CAT_ID":66983,"ELEMENT_SET_NO":999,"REV_AT_EPOCH":1653,"BSTAR":0.00095895153,"MEAN_MOTION_DOT":0.00026252,"MEAN_MOTION_DDOT":0},{"OBJECT_NAME":"STARLINK-35591","OBJECT_ID":"2025-288AB","EPOCH":"2026-03-17T23:46:00.872832","MEAN_MOTION":15.27622188,"ECCENTRICITY":6.173e-5,"INCLINATION":43.001,"RA_OF_ASC_NODE":336.8489,"ARG_OF_PERICENTER":240.1425,"MEAN_ANOMALY":119.9366,"EPHEMERIS_TYPE":0,"CLASSIFICATION_TYPE":"U","NORAD_CAT_ID":66984,"ELEMENT_SET_NO":999,"REV_AT_EPOCH":1655,"BSTAR":0.0008247581,"MEAN_MOTION_DOT":0.00022532,"MEAN_MOTION_DDOT":0},{"OBJECT_NAME":"STARLINK-36103","OBJECT_ID":"2025-288AC","EPOCH":"2026-03-17T23:47:51.509760","MEAN_MOTION":15.2760562,"ECCENTRICITY":9.703e-5,"INCLINATION":43.0026,"RA_OF_ASC_NODE":336.8561,"ARG_OF_PERICENTER":199.2012,"MEAN_ANOMALY":160.8804,"EPHEMERIS_TYPE":0,"CLASSIFICATION_TYPE":"U","NORAD_CAT_ID":66985,"ELEMENT_SET_NO":999,"REV_AT_EPOCH":1655,"BSTAR":0.00095671286,"MEAN_MOTION_DOT":0.00026178,"MEAN_MOTION_DDOT":0},{"OBJECT_NAME":"STARLINK-36135","OBJECT_ID":"2025-288AD","EPOCH":"2026-03-17T18:37:38.235936","MEAN_MOTION":15.27617689,"ECCENTRICITY":0.0001223,"INCLINATION":43.0013,"RA_OF_ASC_NODE":337.8226,"ARG_OF_PERICENTER":259.4342,"MEAN_ANOMALY":100.6372,"EPHEMERIS_TYPE":0,"CLASSIFICATION_TYPE":"U","NORAD_CAT_ID":66986,"ELEMENT_SET_NO":999,"REV_AT_EPOCH":1652,"BSTAR":0.00068783201,"MEAN_MOTION_DOT":0.00018735,"MEAN_MOTION_DDOT":0},{"OBJECT_NAME":"STARLINK-36147","OBJECT_ID":"2025-288AE","EPOCH":"2026-03-17T18:26:32.001216","MEAN_MOTION":15.27598292,"ECCENTRICITY":6.69e-5,"INCLINATION":42.9969,"RA_OF_ASC_NODE":337.7622,"ARG_OF_PERICENTER":263.5791,"MEAN_ANOMALY":96.4984,"EPHEMERIS_TYPE":0,"CLASSIFICATION_TYPE":"U","NORAD_CAT_ID":66987,"ELEMENT_SET_NO":999,"REV_AT_EPOCH":1652,"BSTAR":0.00058686682,"MEAN_MOTION_DOT":0.00015931,"MEAN_MOTION_DDOT":0}]
