STARLINK-34846          
1 66972U 25288P   26076.76072114  .00024857  00000+0  90850-3 0  9994
2 66972  43.0024 337.7119 0001332 266.6409  93.4290 15.27626171 16527
STARLINK-35778          
1 66973U 25288Q   26076.74787346  .00014094  00000+0  52034-3 0  9997
2 66973  42.9966 337.6105 0001273 290.7079  69.3636 15.27601917 16527
STARLINK-35780          
1 66974U 25288R   26077.00299118  .00018015  00000+0  66195-3 0  9993
2 66974  43.0001 336.0848 0001444 271.6860  88.3826 15.27611559 16562
STARLINK-35777          
1 66975U 25288S   26077.00056962  .00018453  00000+0  67813-3 0  9996
2 66975  42.9994 336.9304 0001004 224.9600 135.1170 15.27593187 16551
STARLINK-35772          
1 66976U 25288T   26076.77566799  .00023769  00000+0  84730-3 0  9997
2 66976  43.0025 337.8692 0001621 266.5913  93.4754 15.28465539 16524
STARLINK-35770          
1 66977U 25288U   26076.98515412  .00015097  00000+0  55664-3 0  9996
2 66977  43.0045 336.8191 0001211 267.0258  93.0455 15.27602149 16559
STARLINK-35787          
1 66978U 25288V   26076.42480044  .00016839  00000+0  61971-3 0  9991
2 66978  43.0009 339.4857 0001254 284.8038  75.2675 15.27598249 16470
STARLINK-36107          
1 66979U 25288W   26076.99928753  .00018000  00000+0  66144-3 0  9997
2 66979  43.0006 336.9134 0001321 273.3435  86.7265 15.27609902 16557
STARLINK-36086          
1 66980U 25288X   26076.98900828  .00015256  00000+0  56230-3 0  9996
2 66980  43.0023 336.8447 0002232 257.4505 102.6097 15.27606045 16553
STARLINK-36142          
1 66981U 25288Y   26076.91334373  .00014837  00000+0  54721-3 0  9993
2 66981  43.0029 337.1380 0001208 260.9038  99.1677 15.27603095 16547
STARLINK-36113          
1 66982U 25288Z   26076.74530625  .00030765  00000+0  11220-2 0  9997
2 66982  42.9955 337.5828 0000255 187.9992 172.0856 15.27604520 16525
STARLINK-36145          
1 66983U 25288AA  26076.84923821  .00026252  00000+0  95895-3 0  9990
2 66983  42.9993 337.5085 0002025 255.2199 104.8428 15.27618729 16533
STARLINK-35591          
1 66984U 25288AB  26076.99028788  .00022532  00000+0  82476-3 0  9993
2 66984  43.0010 336.8489 0000617 240.1425 119.9366 15.27622188 16550
STARLINK-36103          
1 66985U 25288AC  26076.99156840  .00026178  00000+0  95671-3 0  9996
2 66985  43.0026 336.8561 0000970 199.2012 160.8804 15.27605620 16551
STARLINK-36135          
1 66986U 25288AD  26076.77613699  .00018735  00000+0  68783-3 0  9997
2 66986  43.0013 337.8226 0001223 259.4342 100.6372 15.27617689 16521
STARLINK-36147          
1 66987U 25288AE  26076.76842594  .00015931  00000+0  58687-3 0  9992
2 66987  42.9969 337.7622 0000669 263.5791  96.4984 15.27598292 16525
